{"type": "FeatureCollection", "features": [ {"type": "Feature", "properties": {"norad_id": 29986, "name": "FENGYUN 1C DEB", "group": "fengyun-1c-debris", "lat": -3.4943762888932413, "lon": -136.94405649061827, "alt_km": 813.0854131708411, "timestamp": "2025-12-02T17:49:12.300990+00:00", "meta": {"OBJECT_NAME": "FENGYUN 1C DEB", "OBJECT_ID": "1999-025LL", "EPOCH": "2025-12-02T03:39:33.274080", "MEAN_MOTION": 14.2908316, "ECCENTRICITY": 0.00230565, "INCLINATION": 99.4003, "RA_OF_ASC_NODE": 42.9999, "ARG_OF_PERICENTER": 30.3268, "MEAN_ANOMALY": 359.1143, "EPHEMERIS_TYPE": 0, "CLASSIFICATION_TYPE": "U", "NORAD_CAT_ID": 29986, "ELEMENT_SET_NO": 999, "REV_AT_EPOCH": 97356, "BSTAR": 0.0018073819, "MEAN_MOTION_DOT": 4.545e-05, "MEAN_MOTION_DDOT": 0}, "tle": {"line1": "1 29986U 99025LL  25336.15246845  .00004545  00000+0  18074-2 0  9992", "line2": "2 29986  99.4003  42.9999 0023056  30.3268 359.1143 14.29083160973561"}}, "geometry": {"type": "Point", "coordinates": [-136.94405649061827, -3.4943762888932413]}}, {"type": "Feature", "properties": {"norad_id": 29987, "name": "FENGYUN 1C DEB", "group": "fengyun-1c-debris", "lat": -51.47849656372573, "lon": -119.89000015657791, "alt_km": 809.9301195832059, "timestamp": "2025-12-02T17:49:12.301000+00:00", "meta": {"OBJECT_NAME": "FENGYUN 1C DEB", "OBJECT_ID": "1999-025LM", "EPOCH": "2025-12-02T05:13:19.109856", "MEAN_MOTION": 14.14377924, "ECCENTRICITY": 0.0080866, "INCLINATION": 98.8972, "RA_OF_ASC_NODE": 228.2386, "ARG_OF_PERICENTER": 263.9622, "MEAN_ANOMALY": 251.8057, "EPHEMERIS_TYPE": 0, "CLASSIFICATION_TYPE": "U", "NORAD_CAT_ID": 29987, "ELEMENT_SET_NO": 999, "REV_AT_EPOCH": 96224, "BSTAR": 0.0033817, "MEAN_MOTION_DOT": 6.636e-05, "MEAN_MOTION_DDOT": 0}, "tle": {"line1": "1 29987U 99025LM  25336.21758229  .00006636  00000+0  33817-2 0  9999", "line2": "2 29987  98.8972 228.2386 0080866 263.9622 251.8057 14.14377924962242"}}, "geometry": {"type": "Point", "coordinates": [-119.89000015657791, -51.47849656372573]}}, {"type": "Feature", "properties": {"norad_id": 29988, "name": "FENGYUN 1C DEB", "group": "fengyun-1c-debris", "lat": 55.45340606454889, "lon": -86.83376577607102, "alt_km": 696.1776038272719, "timestamp": "2025-12-02T17:49:12.301010+00:00", "meta": {"OBJECT_NAME": "FENGYUN 1C DEB", "OBJECT_ID": "1999-025LN", "EPOCH": "2025-12-02T12:34:08.154336", "MEAN_MOTION": 14.50170181, "ECCENTRICITY": 0.0121282, "INCLINATION": 98.6964, "RA_OF_ASC_NODE": 80.0955, "ARG_OF_PERICENTER": 49.3925, "MEAN_ANOMALY": 11.176, "EPHEMERIS_TYPE": 0, "CLASSIFICATION_TYPE": "U", "NORAD_CAT_ID": 29988, "ELEMENT_SET_NO": 999, "REV_AT_EPOCH": 97919, "BSTAR": 0.0019328, "MEAN_MOTION_DOT": 8.213e-05, "MEAN_MOTION_DDOT": 0}, "tle": {"line1": "1 29988U 99025LN  25336.52370549  .00008213  00000+0  19328-2 0  9993", "line2": "2 29988  98.6964  80.0955 0121282  49.3925  11.1760 14.50170181979194"}}, "geometry": {"type": "Point", "coordinates": [-86.83376577607102, 55.45340606454889]}}, {"type": "Feature", "properties": {"norad_id": 29989, "name": "FENGYUN 1C DEB", "group": "fengyun-1c-debris", "lat": -18.283351697875702, "lon": 132.9140761399877, "alt_km": 764.6991759509183, "timestamp": "2025-12-02T17:49:12.301020+00:00", "meta": {"OBJECT_NAME": "FENGYUN 1C DEB", "OBJECT_ID": "1999-025LP", "EPOCH": "2025-12-02T10:43:24.301056", "MEAN_MOTION": 14.15808434, "ECCENTRICITY": 0.0122769, "INCLINATION": 98.6668, "RA_OF_ASC_NODE": 315.515, "ARG_OF_PERICENTER": 225.299, "MEAN_ANOMALY": 267.4198, "EPHEMERIS_TYPE": 0, "CLASSIFICATION_TYPE": "U", "NORAD_CAT_ID": 29989, "ELEMENT_SET_NO": 999, "REV_AT_EPOCH": 97465, "BSTAR": 0.0002173, "MEAN_MOTION_DOT": 4.16e-06, "MEAN_MOTION_DDOT": 0}, "tle": {"line1": "1 29989U 99025LP  25336.44680904  .00000416  00000+0  21730-3 0  9992", "line2": "2 29989  98.6668 315.5150 0122769 225.2990 267.4198 14.15808434974654"}}, "geometry": {"type": "Point", "coordinates": [132.9140761399877, -18.283351697875702]}}, {"type": "Feature", "properties": {"norad_id": 29992, "name": "FENGYUN 1C DEB", "group": "fengyun-1c-debris", "lat": -33.18287641137022, "lon": 146.38041393238817, "alt_km": 798.9573205129391, "timestamp": "2025-12-02T17:49:12.301030+00:00", "meta": {"OBJECT_NAME": "FENGYUN 1C DEB", "OBJECT_ID": "1999-025LS", "EPOCH": "2025-12-02T12:16:04.719072", "MEAN_MOTION": 14.11605788, "ECCENTRICITY": 0.0088358, "INCLINATION": 98.7298, "RA_OF_ASC_NODE": 331.9222, "ARG_OF_PERICENTER": 196.6955, "MEAN_ANOMALY": 281.5715, "EPHEMERIS_TYPE": 0, "CLASSIFICATION_TYPE": "U", "NORAD_CAT_ID": 29992, "ELEMENT_SET_NO": 999, "REV_AT_EPOCH": 97243, "BSTAR": 0.00014492, "MEAN_MOTION_DOT": 2.3e-06, "MEAN_MOTION_DDOT": 0}, "tle": {"line1": "1 29992U 99025LS  25336.51116573  .00000230  00000+0  14492-3 0  9991", "line2": "2 29992  98.7298 331.9222 0088358 196.6955 281.5715 14.11605788972436"}}, "geometry": {"type": "Point", "coordinates": [146.38041393238817, -33.18287641137022]}}, {"type": "Feature", "properties": {"norad_id": 29993, "name": "FENGYUN 1C DEB", "group": "fengyun-1c-debris", "lat": -59.30180673777846, "lon": 28.84728154712187, "alt_km": 852.4052365409807, "timestamp": "2025-12-02T17:49:12.301040+00:00", "meta": {"OBJECT_NAME": "FENGYUN 1C DEB", "OBJECT_ID": "1999-025LT", "EPOCH": "2025-12-02T02:45:24.876000", "MEAN_MOTION": 14.08142773, "ECCENTRICITY": 0.00389177, "INCLINATION": 98.7949, "RA_OF_ASC_NODE": 13.1208, "ARG_OF_PERICENTER": 345.1258, "MEAN_ANOMALY": 14.8764, "EPHEMERIS_TYPE": 0, "CLASSIFICATION_TYPE": "U", "NORAD_CAT_ID": 29993, "ELEMENT_SET_NO": 999, "REV_AT_EPOCH": 97020, "BSTAR": 0.00016888479, "MEAN_MOTION_DOT": 2.47e-06, "MEAN_MOTION_DDOT": 0}, "tle": {"line1": "1 29993U 99025LT  25336.11487125  .00000247  00000+0  16888-3 0  9991", "line2": "2 29993  98.7949  13.1208 0038917 345.1258  14.8764 14.08142773970206"}}, "geometry": {"type": "Point", "coordinates": [28.84728154712187, -59.30180673777846]}}, {"type": "Feature", "properties": {"norad_id": 29994, "name": "FENGYUN 1C DEB", "group": "fengyun-1c-debris", "lat": 68.02440177103907, "lon": -13.366388055155808, "alt_km": 971.1604021399544, "timestamp": "2025-12-02T17:49:12.301050+00:00", "meta": {"OBJECT_NAME": "FENGYUN 1C DEB", "OBJECT_ID": "1999-025LU", "EPOCH": "2025-12-02T00:38:30.448320", "MEAN_MOTION": 14.02631444, "ECCENTRICITY": 0.01295401, "INCLINATION": 98.8306, "RA_OF_ASC_NODE": 8.5976, "ARG_OF_PERICENTER": 243.6648, "MEAN_ANOMALY": 174.156, "EPHEMERIS_TYPE": 0, "CLASSIFICATION_TYPE": "U", "NORAD_CAT_ID": 29994, "ELEMENT_SET_NO": 999, "REV_AT_EPOCH": 96576, "BSTAR": 0.00037885056, "MEAN_MOTION_DOT": 5.85e-06, "MEAN_MOTION_DDOT": 0}, "tle": {"line1": "1 29994U 99025LU  25336.02674130  .00000585  00000+0  37885-3 0  9991", "line2": "2 29994  98.8306   8.5976 0129540 243.6648 174.1560 14.02631444965764"}}, "geometry": {"type": "Point", "coordinates": [-13.366388055155808, 68.02440177103907]}}, {"type": "Feature", "properties": {"norad_id": 29996, "name": "FENGYUN 1C DEB", "group": "fengyun-1c-debris", "lat": 6.865959643651246, "lon": 12.661904777195979, "alt_km": 893.2041894545191, "timestamp": "2025-12-02T17:49:12.301060+00:00", "meta": {"OBJECT_NAME": "FENGYUN 1C DEB", "OBJECT_ID": "1999-025LW", "EPOCH": "2025-12-02T02:33:21.534336", "MEAN_MOTION": 14.09314259, "ECCENTRICITY": 0.01326869, "INCLINATION": 99.3045, "RA_OF_ASC_NODE": 13.1362, "ARG_OF_PERICENTER": 117.4794, "MEAN_ANOMALY": 266.0129, "EPHEMERIS_TYPE": 0, "CLASSIFICATION_TYPE": "U", "NORAD_CAT_ID": 29996, "ELEMENT_SET_NO": 999, "REV_AT_EPOCH": 95987, "BSTAR": 0.0021363692, "MEAN_MOTION_DOT": 3.993e-05, "MEAN_MOTION_DDOT": 0}, "tle": {"line1": "1 29996U 99025LW  25336.10649924  .00003993  00000+0  21364-2 0  9995", "line2": "2 29996  99.3045  13.1362 0132686 117.4794 266.0129 14.09314259959874"}}, "geometry": {"type": "Point", "coordinates": [12.661904777195979, 6.865959643651246]}}, {"type": "Feature", "properties": {"norad_id": 29997, "name": "FENGYUN 1C DEB", "group": "fengyun-1c-debris", "lat": -31.75473973736433, "lon": -6.97861358129877, "alt_km": 844.8062371838396, "timestamp": "2025-12-02T17:49:12.301070+00:00", "meta": {"OBJECT_NAME": "FENGYUN 1C DEB", "OBJECT_ID": "1999-025LX", "EPOCH": "2025-12-02T11:53:49.710336", "MEAN_MOTION": 14.00840154, "ECCENTRICITY": 0.0080404, "INCLINATION": 98.8806, "RA_OF_ASC_NODE": 347.2284, "ARG_OF_PERICENTER": 355.8638, "MEAN_ANOMALY": 168.5945, "EPHEMERIS_TYPE": 0, "CLASSIFICATION_TYPE": "U", "NORAD_CAT_ID": 29997, "ELEMENT_SET_NO": 999, "REV_AT_EPOCH": 96246, "BSTAR": 0.0010169, "MEAN_MOTION_DOT": 1.519e-05, "MEAN_MOTION_DDOT": 0}, "tle": {"line1": "1 29997U 99025LX  25336.49571424  .00001519  00000+0  10169-2 0  9990", "line2": "2 29997  98.8806 347.2284 0080404 355.8638 168.5945 14.00840154962463"}}, "geometry": {"type": "Point", "coordinates": [-6.97861358129877, -31.75473973736433]}}, {"type": "Feature", "properties": {"norad_id": 29998, "name": "FENGYUN 1C DEB", "group": "fengyun-1c-debris", "lat": -54.475988827795575, "lon": 49.761457553151224, "alt_km": 800.9284000262478, "timestamp": "2025-12-02T17:49:12.301080+00:00", "meta": {"OBJECT_NAME": "FENGYUN 1C DEB", "OBJECT_ID": "1999-025LY", "EPOCH": "2025-12-02T02:57:00.189504", "MEAN_MOTION": 14.28471715, "ECCENTRICITY": 0.00046171, "INCLINATION": 99.3078, "RA_OF_ASC_NODE": 35.8207, "ARG_OF_PERICENTER": 336.2025, "MEAN_ANOMALY": 23.894, "EPHEMERIS_TYPE": 0, "CLASSIFICATION_TYPE": "U", "NORAD_CAT_ID": 29998, "ELEMENT_SET_NO": 999, "REV_AT_EPOCH": 97723, "BSTAR": 0.0010174087, "MEAN_MOTION_DOT": 2.499e-05, "MEAN_MOTION_DDOT": 0}, "tle": {"line1": "1 29998U 99025LY  25336.12291886  .00002499  00000+0  10174-2 0  9996", "line2": "2 29998  99.3078  35.8207 0004617 336.2025  23.8940 14.28471715977233"}}, "geometry": {"type": "Point", "coordinates": [49.761457553151224, -54.475988827795575]}}]}